{"type": "FeatureCollection", "features": [ {"type": "Feature", "properties": {"norad_id": 34910, "name": "COSMOS 2251 DEB", "group": "cosmos-2251-debris", "lat": 73.49969581670992, "lon": 171.2163381260058, "alt_km": 1301.8089936204005, "timestamp": "2025-12-17T15:50:10.177340+00:00", "meta": {"OBJECT_NAME": "COSMOS 2251 DEB", "OBJECT_ID": "1993-036ADF", "EPOCH": "2025-12-16T00:48:30.580128", "MEAN_MOTION": 13.37690746, "ECCENTRICITY": 0.04679747, "INCLINATION": 73.876, "RA_OF_ASC_NODE": 96.2259, "ARG_OF_PERICENTER": 214.6056, "MEAN_ANOMALY": 328.1497, "EPHEMERIS_TYPE": 0, "CLASSIFICATION_TYPE": "U", "NORAD_CAT_ID": 34910, "ELEMENT_SET_NO": 999, "REV_AT_EPOCH": 81568, "BSTAR": 0.0011529423, "MEAN_MOTION_DOT": 1.118e-05, "MEAN_MOTION_DDOT": 0}, "tle": {"line1": "1 34910U 93036ADF 25350.03368727  .00001118  00000+0  11529-2 0  9999", "line2": "2 34910  73.8760  96.2259 0467974 214.6056 328.1497 13.37690746815682"}}, "geometry": {"type": "Point", "coordinates": [171.2163381260058, 73.49969581670992]}}, {"type": "Feature", "properties": {"norad_id": 34911, "name": "COSMOS 2251 DEB", "group": "cosmos-2251-debris", "lat": -40.43728981164174, "lon": 69.4829779317959, "alt_km": 744.6098476472671, "timestamp": "2025-12-17T15:50:10.177350+00:00", "meta": {"OBJECT_NAME": "COSMOS 2251 DEB", "OBJECT_ID": "1993-036ADG", "EPOCH": "2025-12-16T17:41:35.979072", "MEAN_MOTION": 14.5937892, "ECCENTRICITY": 0.00837784, "INCLINATION": 74.0408, "RA_OF_ASC_NODE": 237.1259, "ARG_OF_PERICENTER": 1.5152, "MEAN_ANOMALY": 56.2487, "EPHEMERIS_TYPE": 0, "CLASSIFICATION_TYPE": "U", "NORAD_CAT_ID": 34911, "ELEMENT_SET_NO": 999, "REV_AT_EPOCH": 88645, "BSTAR": 0.00013641579, "MEAN_MOTION_DOT": 6.46e-06, "MEAN_MOTION_DDOT": 0}, "tle": {"line1": "1 34911U 93036ADG 25350.73722198  .00000646  00000+0  13642-3 0  9997", "line2": "2 34911  74.0408 237.1259 0083778   1.5152  56.2487 14.59378920886450"}}, "geometry": {"type": "Point", "coordinates": [69.4829779317959, -40.43728981164174]}}, {"type": "Feature", "properties": {"norad_id": 34913, "name": "COSMOS 2251 DEB", "group": "cosmos-2251-debris", "lat": 30.139892544656167, "lon": 83.90980538100813, "alt_km": 783.0283130483367, "timestamp": "2025-12-17T15:50:10.177361+00:00", "meta": {"OBJECT_NAME": "COSMOS 2251 DEB", "OBJECT_ID": "1993-036ADJ", "EPOCH": "2025-12-17T01:50:51.328608", "MEAN_MOTION": 14.34638834, "ECCENTRICITY": 0.00205223, "INCLINATION": 74.0284, "RA_OF_ASC_NODE": 274.5493, "ARG_OF_PERICENTER": 23.2815, "MEAN_ANOMALY": 355.8758, "EPHEMERIS_TYPE": 0, "CLASSIFICATION_TYPE": "U", "NORAD_CAT_ID": 34913, "ELEMENT_SET_NO": 999, "REV_AT_EPOCH": 65250, "BSTAR": 4.1765256e-05, "MEAN_MOTION_DOT": 9.2e-07, "MEAN_MOTION_DDOT": 0}, "tle": {"line1": "1 34913U 93036ADJ 25351.07698297  .00000092  00000+0  41765-4 0  9992", "line2": "2 34913  74.0284 274.5493 0020522  23.2815 355.8758 14.34638834652506"}}, "geometry": {"type": "Point", "coordinates": [83.90980538100813, 30.139892544656167]}}, {"type": "Feature", "properties": {"norad_id": 34918, "name": "COSMOS 2251 DEB", "group": "cosmos-2251-debris", "lat": 43.46206360123797, "lon": -40.055285442482585, "alt_km": 701.7126731425096, "timestamp": "2025-12-17T15:50:10.177371+00:00", "meta": {"OBJECT_NAME": "COSMOS 2251 DEB", "OBJECT_ID": "1993-036ADP", "EPOCH": "2025-12-16T13:53:46.052736", "MEAN_MOTION": 14.61269295, "ECCENTRICITY": 0.00334369, "INCLINATION": 74.0708, "RA_OF_ASC_NODE": 306.3024, "ARG_OF_PERICENTER": 273.1328, "MEAN_ANOMALY": 208.8551, "EPHEMERIS_TYPE": 0, "CLASSIFICATION_TYPE": "U", "NORAD_CAT_ID": 34918, "ELEMENT_SET_NO": 999, "REV_AT_EPOCH": 65392, "BSTAR": 0.0014489759, "MEAN_MOTION_DOT": 7.183e-05, "MEAN_MOTION_DDOT": 0}, "tle": {"line1": "1 34918U 93036ADP 25350.57900524  .00007183  00000+0  14490-2 0  9991", "line2": "2 34918  74.0708 306.3024 0033436 273.1328 208.8551 14.61269295653925"}}, "geometry": {"type": "Point", "coordinates": [-40.055285442482585, 43.46206360123797]}}, {"type": "Feature", "properties": {"norad_id": 34924, "name": "COSMOS 2251 DEB", "group": "cosmos-2251-debris", "lat": 19.24542462247643, "lon": 85.79505494740417, "alt_km": 723.3222972015119, "timestamp": "2025-12-17T15:50:10.177381+00:00", "meta": {"OBJECT_NAME": "COSMOS 2251 DEB", "OBJECT_ID": "1993-036ADV", "EPOCH": "2025-12-17T06:01:08.300064", "MEAN_MOTION": 14.600743, "ECCENTRICITY": 0.0053968, "INCLINATION": 74.0413, "RA_OF_ASC_NODE": 80.8415, "ARG_OF_PERICENTER": 164.4224, "MEAN_ANOMALY": 226.9122, "EPHEMERIS_TYPE": 0, "CLASSIFICATION_TYPE": "U", "NORAD_CAT_ID": 34924, "ELEMENT_SET_NO": 999, "REV_AT_EPOCH": 87789, "BSTAR": 0.00072655222, "MEAN_MOTION_DOT": 3.535e-05, "MEAN_MOTION_DDOT": 0}, "tle": {"line1": "1 34924U 93036ADV 25351.25079051  .00003535  00000+0  72655-3 0  9991", "line2": "2 34924  74.0413  80.8415 0053968 164.4224 226.9122 14.60074300877891"}}, "geometry": {"type": "Point", "coordinates": [85.79505494740417, 19.24542462247643]}}, {"type": "Feature", "properties": {"norad_id": 34944, "name": "COSMOS 2251 DEB", "group": "cosmos-2251-debris", "lat": 31.450386998244245, "lon": -126.56110355843876, "alt_km": 714.3934728198765, "timestamp": "2025-12-17T15:50:10.177392+00:00", "meta": {"OBJECT_NAME": "COSMOS 2251 DEB", "OBJECT_ID": "1993-036ADX", "EPOCH": "2025-12-17T02:06:11.847168", "MEAN_MOTION": 14.14195665, "ECCENTRICITY": 0.02198727, "INCLINATION": 73.7495, "RA_OF_ASC_NODE": 224.195, "ARG_OF_PERICENTER": 70.8954, "MEAN_ANOMALY": 291.5851, "EPHEMERIS_TYPE": 0, "CLASSIFICATION_TYPE": "U", "NORAD_CAT_ID": 34944, "ELEMENT_SET_NO": 999, "REV_AT_EPOCH": 64144, "BSTAR": 0.00030334686, "MEAN_MOTION_DOT": 7.03e-06, "MEAN_MOTION_DDOT": 0}, "tle": {"line1": "1 34944U 93036ADX 25351.08763712  .00000703  00000+0  30335-3 0  9991", "line2": "2 34944  73.7495 224.1950 0219872  70.8954 291.5851 14.14195665641448"}}, "geometry": {"type": "Point", "coordinates": [-126.56110355843876, 31.450386998244245]}}, {"type": "Feature", "properties": {"norad_id": 34946, "name": "COSMOS 2251 DEB", "group": "cosmos-2251-debris", "lat": -71.29608513951338, "lon": -149.50665661555283, "alt_km": 723.6559141582256, "timestamp": "2025-12-17T15:50:10.177403+00:00", "meta": {"OBJECT_NAME": "COSMOS 2251 DEB", "OBJECT_ID": "1993-036ADZ", "EPOCH": "2025-12-11T09:12:32.820480", "MEAN_MOTION": 14.61985522, "ECCENTRICITY": 0.0048688, "INCLINATION": 74.0237, "RA_OF_ASC_NODE": 344.7115, "ARG_OF_PERICENTER": 122.3418, "MEAN_ANOMALY": 238.2476, "EPHEMERIS_TYPE": 0, "CLASSIFICATION_TYPE": "U", "NORAD_CAT_ID": 34946, "ELEMENT_SET_NO": 999, "REV_AT_EPOCH": 88189, "BSTAR": 0.00095647955, "MEAN_MOTION_DOT": 4.849e-05, "MEAN_MOTION_DDOT": 0}, "tle": {"line1": "1 34946U 93036ADZ 25345.38371320  .00004849  00000+0  95648-3 0  9992", "line2": "2 34946  74.0237 344.7115 0048688 122.3418 238.2476 14.61985522881890"}}, "geometry": {"type": "Point", "coordinates": [-149.50665661555283, -71.29608513951338]}}, {"type": "Feature", "properties": {"norad_id": 34949, "name": "COSMOS 2251 DEB", "group": "cosmos-2251-debris", "lat": 10.126427794781913, "lon": 102.98040722051293, "alt_km": 682.6376808604573, "timestamp": "2025-12-17T15:50:10.177413+00:00", "meta": {"OBJECT_NAME": "COSMOS 2251 DEB", "OBJECT_ID": "1993-036AEC", "EPOCH": "2025-12-16T00:41:42.487008", "MEAN_MOTION": 14.74023339, "ECCENTRICITY": 0.00802648, "INCLINATION": 74.0185, "RA_OF_ASC_NODE": 103.231, "ARG_OF_PERICENTER": 247.8557, "MEAN_ANOMALY": 111.4083, "EPHEMERIS_TYPE": 0, "CLASSIFICATION_TYPE": "U", "NORAD_CAT_ID": 34949, "ELEMENT_SET_NO": 999, "REV_AT_EPOCH": 88410, "BSTAR": 0.00040106171, "MEAN_MOTION_DOT": 2.742e-05, "MEAN_MOTION_DDOT": 0}, "tle": {"line1": "1 34949U 93036AEC 25350.02896397  .00002742  00000+0  40106-3 0  9997", "line2": "2 34949  74.0185 103.2310 0080264 247.8557 111.4083 14.74023339884109"}}, "geometry": {"type": "Point", "coordinates": [102.98040722051293, 10.126427794781913]}}, {"type": "Feature", "properties": {"norad_id": 34953, "name": "COSMOS 2251 DEB", "group": "cosmos-2251-debris", "lat": -68.55862872703449, "lon": -115.43837810068528, "alt_km": 687.156412944857, "timestamp": "2025-12-17T15:50:10.177424+00:00", "meta": {"OBJECT_NAME": "COSMOS 2251 DEB", "OBJECT_ID": "1993-036AEG", "EPOCH": "2025-12-17T08:12:02.475648", "MEAN_MOTION": 14.68997686, "ECCENTRICITY": 0.00582899, "INCLINATION": 74.0933, "RA_OF_ASC_NODE": 18.6118, "ARG_OF_PERICENTER": 9.3224, "MEAN_ANOMALY": 4.9291, "EPHEMERIS_TYPE": 0, "CLASSIFICATION_TYPE": "U", "NORAD_CAT_ID": 34953, "ELEMENT_SET_NO": 999, "REV_AT_EPOCH": 88196, "BSTAR": 0.00057825392, "MEAN_MOTION_DOT": 3.448e-05, "MEAN_MOTION_DDOT": 0}, "tle": {"line1": "1 34953U 93036AEG 25351.34169532  .00003448  00000+0  57825-3 0  9992", "line2": "2 34953  74.0933  18.6118 0058289   9.3224   4.9291 14.68997686881960"}}, "geometry": {"type": "Point", "coordinates": [-115.43837810068528, -68.55862872703449]}}, {"type": "Feature", "properties": {"norad_id": 34955, "name": "COSMOS 2251 DEB", "group": "cosmos-2251-debris", "lat": -46.593103193611526, "lon": 74.11544848508858, "alt_km": 557.319698940476, "timestamp": "2025-12-17T15:50:10.177435+00:00", "meta": {"OBJECT_NAME": "COSMOS 2251 DEB", "OBJECT_ID": "1993-036AEJ", "EPOCH": "2025-12-11T10:00:38.398176", "MEAN_MOTION": 15.00495775, "ECCENTRICITY": 0.00779991, "INCLINATION": 74.0375, "RA_OF_ASC_NODE": 249.1952, "ARG_OF_PERICENTER": 319.1032, "MEAN_ANOMALY": 40.4318, "EPHEMERIS_TYPE": 0, "CLASSIFICATION_TYPE": "U", "NORAD_CAT_ID": 34955, "ELEMENT_SET_NO": 999, "REV_AT_EPOCH": 90014, "BSTAR": 0.0014966224, "MEAN_MOTION_DOT": 0.00020131, "MEAN_MOTION_DDOT": 0}, "tle": {"line1": "1 34955U 93036AEJ 25345.41711109  .00020131  00000+0  14966-2 0  9994", "line2": "2 34955  74.0375 249.1952 0077999 319.1032  40.4318 15.00495775900143"}}, "geometry": {"type": "Point", "coordinates": [74.11544848508858, -46.593103193611526]}}]}